GLOBALSTAR M069         
1 31573U 07020C   23223.79384889 -.00000078  00000+0  14393-3 0  9994
2 31573  51.9952  78.0765 0001467  62.5449  65.1382 12.62266742749185
GLOBALSTAR M072         
1 31574U 07020D   23224.64462082 -.00000097  00000+0  38681-4 0  9990
2 31574  52.0070 171.1436 0000767 332.6151  83.2536 12.62264909747792
GLOBALSTAR M071         
1 31576U 07020F   23223.11734679 -.00000090  00000+0  78158-4 0  9993
2 31576  52.0065  85.0575 0001843  59.2334 112.9722 12.62266245749082
GLOBALSTAR M063 [+]     
1 26081U 00008A   23223.35408491 -.00000092  00000+0 -13869-3 0  9993
2 26081  51.9951  91.4286 0005165  93.5115  77.6230 11.86143441 77440
GLOBALSTAR M062 [-]     
1 26082U 00008B   23224.56919015 -.00000032  00000+0  47366-3 0  9999
2 26082  51.9832 279.5423 0007130 113.5307  64.9214 12.43409090 75191
GLOBALSTAR M060 [-]     
1 26083U 00008C   23224.04084081 -.00000051  00000+0  39655-3 0  9992
2 26083  52.0009 145.5904 0002792 191.7734 180.6463 12.17613829 70293
GLOBALSTAR M064 [-]     
1 26084U 00008D   23224.06932410 -.00000072  00000+0  16201-3 0  9998
2 26084  52.0000 196.3360 0001308 208.1334 151.9428 11.88509257 86932
